{
  "norad_id": 43798,
  "name": "ASTROCAST 0.1",
  "history": [
    {
      "epoch": "2026-03-28T17:26:26.268288Z",
      "apogee_km": 437.9433265912294,
      "perigee_km": 428.9230366625079,
      "latitude_deg": 6.301003444940558e-05,
      "longitude_deg": 76.26884352912545,
      "height_km": 440.32904446307236,
      "semi_major_axis_km": 6811.570181626868,
      "eccentricity": 0.00066213,
      "inclination_deg": 97.4431,
      "raan_deg": 164.0213,
      "arg_perigee_deg": 146.921,
      "mean_anomaly_deg": 213.2454,
      "mean_motion_rev_day": 15.44300843
    },
    {
      "epoch": "2026-03-29T04:19:34.641120Z",
      "apogee_km": 437.80092246826734,
      "perigee_km": 428.79756604061276,
      "latitude_deg": -1.4015959183075892e-05,
      "longitude_deg": -86.99879141340364,
      "height_km": 440.12193316400607,
      "semi_major_axis_km": 6811.43624425444,
      "eccentricity": 0.0006609,
      "inclination_deg": 97.443,
      "raan_deg": 164.4856,
      "arg_perigee_deg": 145.4152,
      "mean_anomaly_deg": 214.7527,
      "mean_motion_rev_day": 15.44346393
    },
    {
      "epoch": "2026-03-30T03:39:06.078816Z",
      "apogee_km": 437.5546827601829,
      "perigee_km": 428.5271475514355,
      "latitude_deg": 1.2939453134974136e-05,
      "longitude_deg": -76.84252483571824,
      "height_km": 439.7319976576418,
      "semi_major_axis_km": 6811.177915155809,
      "eccentricity": 0.0006627,
      "inclination_deg": 97.4429,
      "raan_deg": 165.4808,
      "arg_perigee_deg": 142.3763,
      "mean_anomaly_deg": 217.795,
      "mean_motion_rev_day": 15.44434253
    },
    {
      "epoch": "2026-03-30T11:25:35.535936Z",
      "apogee_km": 437.49800313240667,
      "perigee_km": 428.42793374843313,
      "latitude_deg": -2.9331789364060157e-05,
      "longitude_deg": 166.547041319619,
      "height_km": 439.6182514615931,
      "semi_major_axis_km": 6811.09996844042,
      "eccentricity": 0.00066583,
      "inclination_deg": 97.4431,
      "raan_deg": 165.8124,
      "arg_perigee_deg": 141.3041,
      "mean_anomaly_deg": 218.8685,
      "mean_motion_rev_day": 15.44460765
    }
  ]
}